     3.02           N: GNSS NAV DATA    C: BDS              RINEX VERSION / TYPE
TPP 4.1.3                               20210706 235930 UTC PGM / RUN BY / DATE 
                                                            COMMENT             
                                                            COMMENT             
                                                            COMMENT             
BDSA    .7451E-08   .2235E-07  -.5960E-07  -.1192E-06       IONOSPHERIC CORR    
BDSB    .9216E+05   .1311E+06  -.6554E+05  -.5243E+06       IONOSPHERIC CORR    
BDUT   .0000000000E+00 -.355271368E-14 405504 2165          TIME SYSTEM CORR    
    18                                                      LEAP SECONDS        
                                                            END OF HEADER       
C44 2021 07 07 10 00 00  .277106184512E-03  .192406091060E-10  .000000000000E+00
      .100000000000E+01 -.353281250000E+02  .416160191885E-08  .590552102957E+00
     -.165263190866E-05  .702262041159E-03 -.792555510998E-06  .528261968231E+04
      .295200000000E+06  .186264514923E-07  .140102293551E+01  .274740159512E-07
      .960554541695E+00  .375000000000E+03  .564524901699E+00 -.730816155712E-08
     -.191793703263E-09  .000000000000E+00  .809000000000E+03  .000000000000E+00
      .200000000000E+01  .000000000000E+00 -.150000000000E-08  .100000000000E+01
      .295200000000E+06  .000000000000E+00  .000000000000E+00  .000000000000E+00
C45 2021 07 07 10 00 00  .486921286210E-03  .100746078147E-10  .000000000000E+00
      .100000000000E+01  .520468750000E+02  .383908848487E-08 -.144103696486E+01
      .238651409745E-05  .422177254222E-03  .103153288364E-04  .528262504196E+04
      .295200000000E+06  .372529029846E-08 -.669836023508E+00 -.535510480404E-07
      .954662083222E+00  .151546875000E+03 -.796765104168E+00 -.657670251749E-08
     -.406088343781E-09  .000000000000E+00  .809000000000E+03  .000000000000E+00
      .200000000000E+01  .000000000000E+00 -.272000000000E-07  .100000000000E+01
      .295200000000E+06  .000000000000E+00  .000000000000E+00  .000000000000E+00
C13 2021 07 07 11 00 00  .327652436681E-03  .140225608902E-10  .000000000000E+00
      .100000000000E+01 -.630218750000E+03  .625383192577E-09 -.139657619412E+01
     -.210870057344E-04  .373357266653E-02  .124727375805E-04  .649358908463E+04
      .298800000000E+06 -.102445483208E-07  .234329402214E+01 -.768341124058E-07
      .100531439872E+01 -.116328125000E+03 -.261759900178E+01 -.173078637991E-08
     -.361086469272E-09  .000000000000E+00  .809000000000E+03  .000000000000E+00
      .200000000000E+01  .000000000000E+00 -.919999987303E-08  .000000000000E+00
      .298800000000E+06  .000000000000E+00  .000000000000E+00  .000000000000E+00
C09 2021 07 07 11 00 00  .392337678932E-03 -.287432300183E-10  .000000000000E+00
      .100000000000E+01 -.340156250000E+02  .175721605224E-08  .238900210316E+01
     -.806991010904E-06  .830990099348E-02  .286940485239E-05  .649361979866E+04
      .298800000000E+06 -.117346644402E-06 -.175167113776E+01  .777654349804E-07
      .949575304937E+00  .147593750000E+03 -.233195897883E+01 -.208008664396E-08
     -.186793494985E-09  .000000000000E+00  .809000000000E+03  .000000000000E+00
      .200000000000E+01  .000000000000E+00  .710000014337E-08  .000000000000E+00
      .298800000000E+06  .000000000000E+00  .000000000000E+00  .000000000000E+00
C39 2021 07 07 11 00 00  .322716077790E-04  .167865721323E-12  .000000000000E+00
      .100000000000E+01 -.234375000000E+01  .171721438601E-08 -.291121546267E+01
      .185333192348E-06  .199052318931E-02  .273669138551E-05  .649330319977E+04
      .298800000000E+06 -.126659870148E-06 -.187460337701E+01  .279396772385E-08
      .960654671123E+00  .161406250000E+03 -.296110711489E+01 -.208222959036E-08
      .414302971667E-10  .000000000000E+00  .809000000000E+03  .000000000000E+00
      .200000000000E+01  .000000000000E+00  .419999990342E-08  .100000000000E+01
      .298800000000E+06  .000000000000E+00  .000000000000E+00  .000000000000E+00
C19 2021 07 07 11 00 00  .900096725672E-03  .139168676583E-10  .000000000000E+00
      .100000000000E+01 -.531250000000E+00  .351478926222E-08  .215492506807E+01
      .954605638981E-07  .906202592887E-03  .892626121640E-05  .528262021065E+04
      .298800000000E+06 -.731088221073E-07 -.277424501471E+01  .447034835815E-07
      .966680995378E+00  .183171875000E+03 -.103214978468E+01 -.645812614973E-08
      .568237955106E-09  .000000000000E+00  .809000000000E+03  .000000000000E+00
      .200000000000E+01  .000000000000E+00  .122000001213E-07  .100000000000E+01
      .298800000000E+06  .000000000000E+00  .000000000000E+00  .000000000000E+00
C16 2021 07 07 11 00 00 -.932907569222E-03  .230828689496E-10  .000000000000E+00
      .100000000000E+01 -.154218750000E+02  .172185743656E-08  .283649954771E+01
     -.288244336843E-06  .381765130442E-02  .286055728793E-05  .649358446121E+04
      .298800000000E+06 -.142492353916E-06 -.180544965945E+01 -.204890966415E-07
      .959979546133E+00  .157515625000E+03 -.240211541263E+01 -.208330106357E-08
     -.782175437889E-10  .000000000000E+00  .809000000000E+03  .000000000000E+00
      .200000000000E+01  .000000000000E+00 -.280000000963E-08  .000000000000E+00
      .298800000000E+06  .000000000000E+00  .000000000000E+00  .000000000000E+00
C20 2021 07 07 11 00 00 -.852193566971E-03  .115498721698E-10  .000000000000E+00
      .100000000000E+01 -.179687500000E+01  .357300597290E-08  .247876797658E+01
     -.731088221073E-07  .841221655719E-03  .918330624700E-05  .528262656403E+04
      .298800000000E+06 -.130385160446E-07 -.277362227536E+01 -.507570803165E-07
      .966676300874E+00  .180031250000E+03 -.597625152412E+00 -.651491422947E-08
      .516092925913E-09  .000000000000E+00  .809000000000E+03  .000000000000E+00
      .200000000000E+01  .000000000000E+00  .230000001267E-07  .100000000000E+01
      .298800000000E+06  .000000000000E+00  .000000000000E+00  .000000000000E+00
C29 2021 07 07 11 00 00  .416221795604E-03  .515587572636E-11  .000000000000E+00
      .100000000000E+01 -.341562500000E+02  .398766610230E-08  .161710520340E+01
     -.188080593944E-05  .335125136189E-03 -.136904418468E-06  .528261740303E+04
      .298800000000E+06 -.484287738800E-07  .139660776829E+01 -.330619513988E-07
      .965046795924E+00  .362906250000E+03  .159125111070E+01 -.713815447564E-08
     -.216794744657E-09  .000000000000E+00  .809000000000E+03  .000000000000E+00
      .200000000000E+01  .000000000000E+00 -.200000002670E-09  .100000000000E+01
      .298800000000E+06  .000000000000E+00  .000000000000E+00  .000000000000E+00
C30 2021 07 07 11 00 00  .473228748888E-03  .145305989463E-11  .000000000000E+00
      .100000000000E+01 -.211250000000E+02  .401981029838E-08 -.289981335773E+01
     -.100815668702E-05  .459618866444E-03 -.342261046171E-06  .528261990929E+04
      .298800000000E+06  .428408384323E-07  .139714142178E+01 -.111293047667E-06
      .964989032604E+00  .366906250000E+03  .631251601592E+00 -.722744390919E-08
     -.188936441390E-09  .000000000000E+00  .809000000000E+03  .000000000000E+00
      .200000000000E+01  .000000000000E+00 -.979999992268E-08  .100000000000E+01
      .298800000000E+06  .000000000000E+00  .000000000000E+00  .000000000000E+00
C38 2021 07 07 11 00 00  .160144874826E-03  .249578135936E-11  .000000000000E+00
      .100000000000E+01 -.658453125000E+03  .701814947695E-09 -.662495262970E+00
     -.221827067435E-04  .187223369721E-02  .116089358926E-04  .649307328796E+04
      .298800000000E+06  .153668224812E-07  .234799333194E+01 -.703148543835E-07
      .978467411815E+00 -.102015625000E+03 -.305777862580E+01 -.180793245050E-08
     -.337871216549E-09  .000000000000E+00  .809000000000E+03  .000000000000E+00
      .200000000000E+01  .000000000000E+00  .519999998616E-08  .100000000000E+01
      .298800000000E+06  .000000000000E+00  .000000000000E+00  .000000000000E+00
C08 2021 07 07 11 00 00 -.901409192011E-03 -.455280257938E-11  .000000000000E+00
      .100000000000E+01 -.637406250000E+03  .447875798682E-09 -.100385120854E+01
     -.215922482312E-04  .531899218913E-02  .126310624182E-04  .649283561516E+04
      .298800000000E+06  .372529029846E-08  .236538967641E+01 -.461004674435E-07
      .104397652353E+01 -.114468750000E+03 -.268662846054E+01 -.169828502610E-08
     -.387158983869E-09  .000000000000E+00  .809000000000E+03  .000000000000E+00
      .200000000000E+01  .000000000000E+00  .113000000468E-07  .000000000000E+00
      .298800000000E+06  .000000000000E+00  .000000000000E+00  .000000000000E+00
C07 2021 07 07 11 00 00  .147773069330E-03 -.410631528780E-10  .542101086243E-19
      .300000000000E+01  .678078125000E+03  .103504311370E-08  .100648660279E+01
      .225342810154E-04  .864425790496E-02  .995630398393E-05  .649400742912E+04
      .298800000000E+06  .419095158577E-07  .201312069113E+00  .183004885912E-06
      .887813630510E+00 -.102781250000E+03 -.253358379643E+01 -.194615249363E-08
      .692886004340E-10  .000000000000E+00  .809000000000E+03  .000000000000E+00
      .200000000000E+01  .000000000000E+00  .149000003447E-07  .200000000000E+01
      .298800000000E+06  .000000000000E+00  .000000000000E+00  .000000000000E+00
